NORAD_CAT_ID,OBJECT_NAME,OBJECT_TYPE,EPOCH,MEAN_MOTION,ECCENTRICITY,INCLINATION,RA_OF_ASC_NODE,ARG_OF_PERICENTER,MEAN_ANOMALY,BSTAR,MEAN_MOTION_DOT,MEAN_MOTION_DDOT,TLE_LINE0,TLE_LINE1,TLE_LINE2,SEMIMAJOR_AXIS,PERIOD,APOGEE,PERIGEE,DECAYED
53023.0,STARLINK-4284,PAYLOAD,2023-11-18 13:13:12,15.08835134,0.0001488,53.2184,264.6224,95.6522,264.464,9.6034e-05,1.241e-05,0.0,0 STARLINK-4284,1 53023U 22076AP  23322.55084431  .00001241  00000-0  96034-4 0  9996,2 53023  53.2184 264.6224 0001488  95.6522 264.4640 15.08835134 75853,6917.895,95.438,540.79,538.731,0.0
53023.0,STARLINK-4284,PAYLOAD,2023-11-19 03:31:40,15.08845476,0.0001445,53.2182,261.9441,87.9448,272.171,0.0001077,1.427e-05,0.0,0 STARLINK-4284,1 53023U 22076AP  23323.14699743  .00001427  00000-0  10770-3 0  9998,2 53023  53.2182 261.9441 0001445  87.9448 272.1710 15.08845476 76413,6917.864,95.437,540.728,538.729,0.0
53023.0,STARLINK-4284,PAYLOAD,2023-11-19 13:03:59,15.08848912,0.0001469,53.2186,260.1592,84.2857,275.8302,0.00014137,1.963e-05,0.0,0 STARLINK-4284,1 53023U 22076AP  23323.54443492  .00001963  00000-0  14137-3 0  9996,2 53023  53.2186 260.1592 0001469  84.2857 275.8302 15.08848912 76005,6917.853,95.437,540.734,538.702,0.0
53023.0,STARLINK-4284,PAYLOAD,2023-11-19 19:25:32,15.08842299,0.000162,53.2173,258.9721,82.882,277.2356,0.00019969,2.892e-05,0.0,0 STARLINK-4284,1 53023U 22076AP  23323.80939895  .00002892  00000-0  19969-3 0  9992,2 53023  53.2173 258.9721 0001620  82.8820 277.2356 15.08842299 76044,6917.873,95.437,540.859,538.618,0.0
53023.0,STARLINK-4284,PAYLOAD,2023-11-20 03:22:28,15.08834985,0.0001727,53.2173,257.4844,82.6772,277.4417,0.00043602,6.657e-05,0.0,0 STARLINK-4284,1 53023U 22076AP  23324.14060285  .00006657  00000-0  43602-3 0  9992,2 53023  53.2173 257.4844 0001727  82.6772 277.4417 15.08834985 76566,6917.896,95.438,540.955,538.566,0.0
53023.0,STARLINK-4284,PAYLOAD,2023-11-20 12:54:46,15.08845334,0.0001475,53.2165,255.6991,88.4895,271.6266,0.00014807,2.07e-05,0.0,0 STARLINK-4284,1 53023U 22076AP  23324.53803642  .00002070  00000-0  14807-3 0  9997,2 53023  53.2165 255.6991 0001475  88.4895 271.6266 15.08845334 76153,6917.864,95.437,540.749,538.709,0.0
53023.0,STARLINK-4284,PAYLOAD,2023-11-21 04:48:37,15.08852073,0.0001513,53.2158,252.725,90.2435,269.873,0.00014847,2.076e-05,0.0,0 STARLINK-4284,1 53023U 22076AP  23325.20043137  .00002076  00000-0  14847-3 0  9997,2 53023  53.2158 252.7250 0001513  90.2435 269.8730 15.08852073 76721,6917.843,95.437,540.755,538.662,0.0
53023.0,STARLINK-4284,PAYLOAD,2023-11-21 19:07:06,15.08838226,0.0001681,53.2162,250.0499,88.8107,271.3078,3.2405e-05,2.28e-06,0.0,0 STARLINK-4284,1 53023U 22076AP  23325.79659963  .00000228  00000-0  32405-4 0  9999,2 53023  53.2162 250.0499 0001681  88.8107 271.3078 15.08838226 76342,6917.886,95.438,540.914,538.588,0.0
53023.0,STARLINK-4284,PAYLOAD,2023-11-22 01:28:38,15.08843576,0.000169,53.2167,248.8603,90.2717,269.8469,0.00014147,1.964e-05,0.0,0 STARLINK-4284,1 53023U 22076AP  23326.06155782  .00001964  00000-0  14147-3 0  9990,2 53023  53.2167 248.8603 0001690  90.2717 269.8469 15.08843576 76859,6917.869,95.437,540.904,538.565,0.0
53023.0,STARLINK-4284,PAYLOAD,2023-11-22 18:57:52,15.08851364,0.0001541,53.2158,245.5898,93.6712,266.4457,0.00037619,5.706e-05,0.0,0 STARLINK-4284,1 53023U 22076AP  23326.79019528  .00005706  00000-0  37619-3 0  9994,2 53023  53.2158 245.5898 0001541  93.6712 266.4457 15.08851364 76490,6917.846,95.437,540.777,538.645,0.0
53023.0,STARLINK-4284,PAYLOAD,2023-11-23 01:19:25,15.08858684,0.0001575,53.2167,244.4011,93.2117,266.9056,0.00055519,8.563e-05,0.0,0 STARLINK-4284,1 53023U 22076AP  23327.05515281  .00008563  00000-0  55519-3 0  9994,2 53023  53.2167 244.4011 0001575  93.2117 266.9056 15.08858684 77007,6917.823,95.436,540.778,538.599,0.0
53023.0,STARLINK-4284,PAYLOAD,2023-11-23 21:59:26,15.08837601,0.0001563,53.2171,240.5353,109.5613,250.5548,8.6766e-05,1.093e-05,0.0,0 STARLINK-4284,1 53023U 22076AP  23327.91627990  .00001093  00000-0  86766-4 0  9990,2 53023  53.2171 240.5353 0001563 109.5613 250.5548 15.08837601 76669,6917.888,95.438,540.834,538.671,0.0
53023.0,STARLINK-4284,PAYLOAD,2023-11-23 23:34:49,15.08837173,0.0001917,53.2178,240.238,119.4096,240.7088,7.0624e-05,8.36e-06,0.0,0 STARLINK-4284,1 53023U 22076AP  23327.98251972  .00000836  00000-0  70624-4 0  9990,2 53023  53.2178 240.2380 0001917 119.4096 240.7088 15.08837173 77149,6917.889,95.438,541.08,538.428,0.0
53023.0,STARLINK-4284,PAYLOAD,2023-11-24 04:20:59,15.08837698,0.0001402,53.2165,239.3453,103.1242,256.9907,0.00018805,2.706e-05,0.0,0 STARLINK-4284,1 53023U 22076AP  23328.18124149  .00002706  00000-0  18805-3 0  9998,2 53023  53.2165 239.3453 0001402 103.1242 256.9907 15.08837698 76709,6917.887,95.438,540.722,538.783,0.0
53023.0,STARLINK-4284,PAYLOAD,2023-11-24 18:39:28,15.08828149,0.0001425,53.2166,236.6655,102.005,258.1102,0.00013144,1.804e-05,0.0,0 STARLINK-4284,1 53023U 22076AP  23328.77740913  .00001804  00000-0  13144-3 0  9995,2 53023  53.2166 236.6655 0001425 102.0050 258.1102 15.08828149 77268,6917.917,95.438,540.767,538.796,0.0
53023.0,STARLINK-4284,PAYLOAD,2023-11-24 21:50:14,15.08836396,0.0001393,53.2164,236.0706,85.7889,274.3262,0.000208,3.024e-05,0.0,0 STARLINK-4284,1 53023U 22076AP  23328.90988800  .00003024  00000-0  20800-3 0  9992,2 53023  53.2164 236.0706 0001393  85.7889 274.3262 15.08836396 76818,6917.891,95.438,540.72,538.793,0.0
53023.0,STARLINK-4284,PAYLOAD,2023-11-24 23:25:37,15.08840027,0.0001445,53.2161,235.7733,84.2218,275.8939,0.00028121,4.19e-05,0.0,0 STARLINK-4284,1 53023U 22076AP  23328.97612703  .00004190  00000-0  28121-3 0  9994,2 53023  53.2161 235.7733 0001445  84.2218 275.8939 15.08840027 77295,6917.88,95.438,540.745,538.746,0.0
53023.0,STARLINK-4284,PAYLOAD,2023-11-25 04:11:46,15.08845346,0.0001519,53.2163,234.88,95.6609,264.4557,0.00045793,7.009e-05,0.0,0 STARLINK-4284,1 53023U 22076AP  23329.17484595  .00007009  00000-0  45793-3 0  9999,2 53023  53.2163 234.8800 0001519  95.6609 264.4557 15.08845346 76854,6917.864,95.437,540.78,538.678,0.0
53023.0,STARLINK-4284,PAYLOAD,2023-11-25 21:41:00,15.08864124,0.0001583,53.2162,231.6085,97.9584,262.1588,0.00075533,0.00011761,0.0,0 STARLINK-4284,1 53023U 22076AP  23329.90347921  .00011761  00000-0  75533-3 0  9996,2 53023  53.2162 231.6085 0001583  97.9584 262.1588 15.08864124 76967,6917.807,95.436,540.767,538.577,0.0
53023.0,STARLINK-4284,PAYLOAD,2023-11-25 23:16:23,15.08872538,0.0001638,53.2161,231.311,102.7083,257.4092,0.00095978,0.00015033,0.0,0 STARLINK-4284,1 53023U 22076AP  23329.96971678  .00015033  00000-0  95978-3 0  9995,2 53023  53.2161 231.3110 0001638 102.7083 257.4092 15.08872538 77441,6917.781,95.435,540.779,538.513,0.0
53023.0,STARLINK-4284,PAYLOAD,2023-11-26 21:31:48,15.08833963,0.0001945,53.2155,227.1488,117.3814,242.7376,-5.4157e-07,-2.97e-06,0.0,0 STARLINK-4284,1 53023U 22076AP  23330.89708467 -.00000297  00000-0 -54157-6 0  9998,2 53023  53.2155 227.1488 0001945 117.3814 242.7376 15.08833963 77115,6917.899,95.438,541.109,538.418,0.0
53023.0,STARLINK-4284,PAYLOAD,2023-11-27 02:17:57,15.08828003,0.0001642,53.2156,226.2581,122.686,237.4291,-0.00016008,-2.834e-05,0.0,0 STARLINK-4284,1 53023U 22076AP  23331.09580707 -.00002834  00000-0 -16008-3 0  9995,2 53023  53.2156 226.2581 0001642 122.6860 237.4291 15.08828003 77615,6917.917,95.438,540.918,538.646,0.0
53023.0,STARLINK-4284,PAYLOAD,2023-11-27 21:22:35,15.08841647,0.0001372,53.2153,222.6917,121.6725,238.4401,0.00015538,2.186e-05,0.0,0 STARLINK-4284,1 53023U 22076AP  23331.89068758  .00002186  00000-0  15538-3 0  9995,2 53023  53.2153 222.6917 0001372 121.6725 238.4401 15.08841647 77268,6917.875,95.437,540.689,538.791,0.0
53023.0,STARLINK-4284,PAYLOAD,2023-11-28 00:33:21,15.08848119,0.0001624,53.2157,222.0979,112.6371,247.4793,0.00050003,7.681e-05,0.0,0 STARLINK-4284,1 53023U 22076AP  23332.02316777  .00007681  00000-0  50003-3 0  9999,2 53023  53.2157 222.0979 0001624 112.6371 247.4793 15.08848119 77750,6917.856,95.437,540.844,538.597,0.0
53023.0,STARLINK-4284,PAYLOAD,2023-11-28 16:27:13,15.0884863,0.0002047,53.2141,219.1302,73.599,286.5227,0.00044048,6.731e-05,0.0,0 STARLINK-4284,1 53023U 22076AP  23332.68557195  .00006731  00000-0  44048-3 0  9999,2 53023  53.2141 219.1302 0002047  73.5990 286.5227 15.08848630 77857,6917.854,95.437,541.135,538.303,0.0
53023.0,STARLINK-4284,PAYLOAD,2023-11-28 22:48:45,15.08854264,0.0001493,53.2154,217.9336,118.9701,241.1441,0.00053659,8.265e-05,0.0,0 STARLINK-4284,1 53023U 22076AP  23332.95052629  .00008265  00000-0  53659-3 0  9993,2 53023  53.2154 217.9336 0001493 118.9701 241.1441 15.08854264 77420,6917.837,95.437,540.735,538.669,0.0
53023.0,STARLINK-4284,PAYLOAD,2023-11-29 01:59:31,15.08859715,0.0001525,53.2153,217.3384,118.1551,241.9595,0.00065027,0.00010082,0.0,0 STARLINK-4284,1 53023U 22076AP  23333.08300449  .00010082  00000-0  65027-3 0  9996,2 53023  53.2153 217.3384 0001525 118.1551 241.9595 15.08859715 77915,6917.82,95.436,540.74,538.63,0.0
53023.0,STARLINK-4284,PAYLOAD,2023-11-29 19:28:46,15.08840789,0.0001481,53.2145,214.0764,71.5269,288.5884,0.00018876,2.717e-05,0.0,0 STARLINK-4284,1 53023U 22076AP  23333.81165122  .00002717  00000-0  18876-3 0  9990,2 53023  53.2145 214.0764 0001481  71.5269 288.5884 15.08840789 78023,6917.878,95.438,540.768,538.718,0.0
53023.0,STARLINK-4284,PAYLOAD,2023-11-30 01:50:18,15.0884823,0.000149,53.2157,212.8759,102.822,257.2939,0.00044973,6.878e-05,0.0,0 STARLINK-4284,1 53023U 22076AP  23334.07660739  .00006878  00000-0  44973-3 0  9992,2 53023  53.2157 212.8759 0001490 102.8220 257.2939 15.08848230 78068,6917.855,95.437,540.751,538.689,0.0
53023.0,STARLINK-4284,PAYLOAD,2023-12-01 01:41:06,15.08836941,0.0001508,53.2167,208.4133,111.4286,248.6867,9.8068e-05,1.273e-05,0.0,0 STARLINK-4284,1 53023U 22076AP  23335.07021350  .00001273  00000-0  98068-4 0  9992,2 53023  53.2167 208.4133 0001508 111.4286 248.6867 15.08836941 78211,6917.89,95.438,540.798,538.712,0.0
